[{"OBJECT_NAME":"STARLINK-31259","OBJECT_ID":"2024-041C","EPOCH":"2026-03-09T02:05:56.246784","MEAN_MOTION":15.2757306,"ECCENTRICITY":0.00012535,"INCLINATION":43.0014,"RA_OF_ASC_NODE":313.7493,"ARG_OF_PERICENTER":278.0582,"MEAN_ANOMALY":82.0128,"EPHEMERIS_TYPE":0,"CLASSIFICATION_TYPE":"U","NORAD_CAT_ID":59076,"ELEMENT_SET_NO":999,"REV_AT_EPOCH":11313,"BSTAR":-3.1083388e-5,"MEAN_MOTION_DOT":-1.117e-5,"MEAN_MOTION_DDOT":0},{"OBJECT_NAME":"VSP RF A1","OBJECT_ID":"2024-043AP","EPOCH":"2026-03-07T00:44:15.345024","MEAN_MOTION":15.26179596,"ECCENTRICITY":0.00094313,"INCLINATION":97.5247,"RA_OF_ASC_NODE":201.5379,"ARG_OF_PERICENTER":234.6315,"MEAN_ANOMALY":125.4042,"EPHEMERIS_TYPE":0,"CLASSIFICATION_TYPE":"U","NORAD_CAT_ID":59135,"ELEMENT_SET_NO":999,"REV_AT_EPOCH":11140,"BSTAR":2.5198753e-5,"MEAN_MOTION_DOT":5.77e-6,"MEAN_MOTION_DDOT":0}]
